[{"number":207,"street":"West 96th Street","junction":["Amsterdam Avenue","Broadway"],"detail":["Basement"],"zipcode":["10025"],"tamuAddress":"207 W 96TH ST New York NY ","latitude":"40.7945161","longitude":"-73.9710419"},{"number":120,"street":"West 69th Street","junction":["Columbus Avenue","Broadway"],"detail":["Basement"],"zipcode":["10023"],"tamuAddress":"120 W 69TH ST New York NY ","latitude":"40.7756982","longitude":"-73.9810333"},{"number":422,"street":"West 57th Street","junction":["9th","10th Ave"],"detail":[],"zipcode":["10023"],"tamuAddress":"422 W 57TH ST New York NY ","latitude":"40.7682311","longitude":"-73.9868768"},{"number":164,"street":"West 74th Street","junction":[],"detail":["1st floor"],"zipcode":["10023"],"tamuAddress":"164 W 74TH ST New York NY ","latitude":"40.7796117","longitude":"-73.9801807"},{"number":207,"street":"West 96th Street","junction":["Amsterdam Avenue","Broadway"],"detail":["Little Room Basement"],"zipcode":["10025"],"tamuAddress":"207 W 96TH ST New York NY ","latitude":"40.7945161","longitude":"-73.9710419"},{"number":144,"street":"West 90th Street","junction":["Columbus","Amsterdam Avenues"],"detail":["Basement"],"zipcode":["10024"],"tamuAddress":"144 W 90TH ST New York NY ","latitude":"40.7898068","longitude":"-73.9723737"},{"number":141,"street":"West 73rd Street","junction":["Columbus","Amsterdam Avenues"],"detail":[],"zipcode":["10023"],"tamuAddress":"141 W 73RD ST New York NY ","latitude":"40.7789036","longitude":"-73.9799533"},{"number":4,"street":"West 76th Street","junction":["Central Park West","Columbus Avenue"],"detail":[" Meeting in the gym"],"zipcode":["10023"],"tamuAddress":"4 W 76TH ST New York NY ","latitude":"40.7748319","longitude":"-73.9649043"},{"number":221,"street":"West 107th Street","junction":["Amsterdam Avenue","Broadway"],"detail":["Basement"],"zipcode":["10025"],"tamuAddress":"221 W 107TH ST New York NY ","latitude":"40.8017795","longitude":"-73.9665393"},{"number":207,"street":"West 96th Street","junction":["Amsterdam","Broadway"],"detail":["Basement","Little Room"],"zipcode":["10025"],"tamuAddress":"207 W 96TH ST New York NY ","latitude":"40.7945161","longitude":"-73.9710419"},{"number":215,"street":"West 82nd Street","junction":["Amsterdam Avenue","Broadway"],"detail":[],"zipcode":["10024"],"tamuAddress":"215 W 82ND ST New York NY ","latitude":"40.7852818734432","longitude":"-73.9771060064311"},{"number":601,"street":"West 114th Street","junction":[],"detail":["(2nd Red Door)"],"zipcode":["10025"],"tamuAddress":"601 W 114TH ST New York NY ","latitude":"40.8069051","longitude":"-73.965058"},{"number":4,"street":"West 76th Street","junction":["Central Park West "," 76th Street "],"detail":["enter on 76th Street"," basement gymnasium"],"zipcode":["10023"],"tamuAddress":"4 W 76TH ST New York NY ","latitude":"40.7748319","longitude":"-73.9649043"},{"number":5,"street":"West 63rd Street","junction":["Central Park West","Broadway 10023"],"detail":["Downstairs in large meeting room."],"zipcode":["10023"],"tamuAddress":"5 W 63RD ST New York NY ","latitude":"40.7708644","longitude":"-73.9806413"},{"number":4,"street":"West 76th Street","junction":["Columbus Avenue","Central Park West 10023"],"detail":["(In the gym)"],"zipcode":["10023"],"tamuAddress":"4 W 76TH ST New York NY ","latitude":"40.7748319","longitude":"-73.9649043"},{"number":160,"street":"Central Park West","junction":[],"detail":["@ 76th Street","Gym basement."],"zipcode":["10023"],"tamuAddress":"160 CENTRAL PARK W New York NY ","latitude":"40.7787712","longitude":"-73.9743066"},{"number":152,"street":"West 66th Street","junction":["Broadway","Amsterdam Avenue"],"detail":["Enter basement level","@ red door on left side of the building.","Basement Level Chapel"],"zipcode":["10023"],"tamuAddress":"152 W 66TH ST New York NY ","latitude":"40.7744405","longitude":"-73.9838262"},{"number":3,"street":"West 95th Street","junction":["Central Park West","Columbus Avenue"],"detail":["Lower Level Auditorium"],"zipcode":["10025"],"tamuAddress":"3 W 95TH ST New York NY ","latitude":"40.7912379","longitude":"-73.9655109"},{"number":251,"street":"West 80th Street","junction":[],"detail":[],"zipcode":["10024"],"tamuAddress":"251 W 80TH ST New York NY ","latitude":"40.7848713","longitude":"-73.9800524"},{"number":111,"street":"West 71st Street","junction":[],"detail":["@ Columbus Avenue"],"zipcode":["10023"],"tamuAddress":"111 W 71ST ST New York NY ","latitude":"40.7769996","longitude":"-73.9796679"},{"number":5,"street":"West 63rd Street","junction":["CPW","Broadway 10023"],"detail":["1st Floor"],"zipcode":["10023"],"tamuAddress":"5 W 63RD ST New York NY ","latitude":"40.7708644","longitude":"-73.9806413"},{"number":5,"street":"West 63rd Street","junction":["Central Park West","Broadway 10023"],"detail":[],"zipcode":["10023"],"tamuAddress":"5 W 63RD ST New York NY ","latitude":"40.7708644","longitude":"-73.9806413"},{"number":207,"street":"West 96th Street","junction":["Amsterdam Avenue","Broadway"],"detail":["Basement","Little Room"],"zipcode":["10025"],"tamuAddress":"207 W 96TH ST New York NY ","latitude":"40.7945161","longitude":"-73.9710419"},{"number":26,"street":"West 84th Street","junction":["Columbus Avenue","Central Park West 10024"],"detail":[],"zipcode":["10024"],"tamuAddress":"26 W 84TH ST New York NY ","latitude":"40.7844228","longitude":"-73.9716168"},{"number":200,"street":"West 97th Street","junction":[],"detail":["@ Amsterdam Avenue","Basement"],"zipcode":["10025"],"tamuAddress":"200 W 97TH ST New York NY ","latitude":"40.7946604892952","longitude":"-73.9699229082063"},{"number":218,"street":"West 108th Street","junction":["Amsterdam Avenue","Broadway"],"detail":["Main Floor"],"zipcode":["10025"],"tamuAddress":"218 W 108TH ST New York NY ","latitude":"40.8021037","longitude":"-73.9658778"},{"number":125,"street":"West 104th Street","junction":["Columbus","Amsterdam Avenues 10025"],"detail":["1st Floor"],"zipcode":["10025"],"tamuAddress":"125 W 104TH ST New York NY ","latitude":"40.7987406120379","longitude":"-73.9655262153158"},{"number":141,"street":"West 73rd Street","junction":["Columbus",""],"detail":[],"zipcode":["10023"],"tamuAddress":"141 W 73RD ST New York NY ","latitude":"40.7789036","longitude":"-73.9799533"},{"number":236,"street":"West 73rd Street","junction":[],"detail":["West of Broadway","5th Floor"],"zipcode":["10023"],"tamuAddress":"236 W 73RD ST New York NY ","latitude":"40.7796494","longitude":"-73.982239"},{"number":165,"street":"West 105th Street","junction":[],"detail":["@ Amsterdam Avenue","Basement"],"zipcode":["10025"],"tamuAddress":"165 W 105TH ST New York NY ","latitude":"40.7996866","longitude":"-73.9657282"},{"number":207,"street":"West 96th Street","junction":["Amsterdam Avenue","Broadway 10025"],"detail":[],"zipcode":["10025"],"tamuAddress":"207 W 96TH ST New York NY ","latitude":"40.7945161","longitude":"-73.9710419"},{"number":207,"street":"West 96th Street","junction":["Amsterdam","Broadway"],"detail":["Basement","Little Room"],"zipcode":["10025"],"tamuAddress":"207 W 96TH ST New York NY ","latitude":"40.7945161","longitude":"-73.9710419"},{"number":2504,"street":"Broadway","junction":[],"detail":["@ 93rd Street","Basement"],"zipcode":["10025"],"tamuAddress":"2504 BROADWAY New York NY ","latitude":"40.7927534","longitude":"-73.972842"},{"number":405,"street":"West 114th Street","junction":[],"detail":["1 Block East of  Amsterdam Avenue 10025","Merton Room"],"zipcode":["10025"],"tamuAddress":"405 W 114TH ST New York NY ","latitude":"40.8051126","longitude":"-73.9607974"},{"number":368,"street":"West End Ave","junction":[],"detail":["@77th Street","1st floor"],"zipcode":["10024"],"tamuAddress":"368 W END AVE New York NY ","latitude":"40.783225","longitude":"-73.9817572"},{"number":225,"street":"West 99th Street","junction":["Amsterdam Avenue","Broadway"],"detail":["1st Floor"],"zipcode":["10025"],"tamuAddress":"225 W 99TH ST New York NY ","latitude":"40.7964452","longitude":"-73.9694226"},{"number":251,"street":"West 100th Street","junction":[],"detail":["@ West End Avenue"],"zipcode":["10025"],"tamuAddress":"251 W 100TH ST New York NY ","latitude":"40.7977791","longitude":"-73.9709911"},{"number":207,"street":"West 96th Street","junction":["Amsterdam","Broadway"],"detail":["Basement","Little Room"],"zipcode":["10025"],"tamuAddress":"207 W 96TH ST New York NY ","latitude":"40.7945161","longitude":"-73.9710419"},{"number":26,"street":"West 84th Street","junction":["Central Park West","Columbus Avenue"],"detail":[],"zipcode":["10024"],"tamuAddress":"26 W 84TH ST New York NY ","latitude":"40.7844228","longitude":"-73.9716168"},{"number":5,"street":"West 63rd Street","junction":["CPW","Broadway"],"detail":["Basement","Room D"],"zipcode":["10023"],"tamuAddress":"5 W 63RD ST New York NY ","latitude":"40.7708644","longitude":"-73.9806413"},{"number":552,"street":"West End Avenue","junction":["Broadway","West End Avenue"],"detail":["Enter on 87th Street","Enter on 87th Street","Basement"],"zipcode":["10024"],"tamuAddress":"552 W END AVE New York NY ","latitude":"40.78931","longitude":"-73.9773114"},{"number":164,"street":"West 74 Street","junction":["Columbus","Amsterdam Avenues 10024"],"detail":["1st Floor","(ask at Front Desk)"],"zipcode":["10024"],"tamuAddress":"164 W 74 ST New York NY ","latitude":"40.7796117","longitude":"-73.9801807"},{"number":340,"street":"West 85th Street","junction":["West End Avenue","Riverside Drive"],"detail":["Basement"],"zipcode":["10024"],"tamuAddress":"340 W 85TH ST New York NY ","latitude":"40.7887343","longitude":"-73.9798639"},{"number":368,"street":"West End Avenue","junction":[],"detail":["@ West 77th Street","1st Floor"],"zipcode":["10024"],"tamuAddress":"368 W END AVE New York NY ","latitude":"40.783225","longitude":"-73.9817572"},{"number":152,"street":"West 71st Street","junction":["Columbus Avenue","Broadway"],"detail":[],"zipcode":["10023"],"tamuAddress":"152 W 71ST ST New York NY ","latitude":"40.7774259","longitude":"-73.9812051"},{"number":5,"street":"West 63rd Street","junction":["Central Park West","Broadway"],"detail":[],"zipcode":["10023"],"tamuAddress":"5 W 63RD ST New York NY ","latitude":"40.7708644","longitude":"-73.9806413"},{"number":131,"street":"West 72nd Street","junction":["Columbus","Amsterdam Avenues"],"detail":["3rd Floor","Room #2F"],"zipcode":["10023"],"tamuAddress":"131 W 72ND ST New York NY ","latitude":"40.7780247","longitude":"-73.9798344"},{"number":207,"street":"West 96th Street","junction":["Amsterdam Avenue","Broadway"],"detail":["Basement","Little Room"],"zipcode":["10025"],"tamuAddress":"207 W 96TH ST New York NY ","latitude":"40.7945161","longitude":"-73.9710419"},{"number":152,"street":"West 71st Street","junction":["Columbus Avenue","Broadway"],"detail":["Ring Bell"],"zipcode":["10023"],"tamuAddress":"152 W 71ST ST New York NY ","latitude":"40.7774259","longitude":"-73.9812051"},{"number":30,"street":"West 68th Street","junction":["Central Park West","Columbus Avenue"],"detail":["Check security desk for Room #"],"zipcode":["10023"],"tamuAddress":"30 W 68TH ST New York NY ","latitude":"40.7740859","longitude":"-73.979107"},{"number":207,"street":"West 96th Street","junction":[],"detail":["Basement","Little Room"],"zipcode":["10025"],"tamuAddress":"207 W 96TH ST New York NY ","latitude":"40.7945161","longitude":"-73.9710419"},{"number":263,"street":"West 86th Street","junction":["@Corner of West End Avenue","86th Street"],"detail":["@Corner of West End Avenue and 86th Street","1st Floor"],"zipcode":["10024"],"tamuAddress":"263 W 86TH ST New York NY ","latitude":"40.7887918","longitude":"-73.9772649"},{"number":306,"street":"West 102nd Street","junction":["West End Avenue","Riverside Drive"],"detail":["2nd Floor"],"zipcode":["10025"],"tamuAddress":"306 W 102ND ST New York NY ","latitude":"40.7992334","longitude":"-73.9710638"},{"number":152,"street":"West 71st Street","junction":[],"detail":[],"zipcode":["10023"],"tamuAddress":"152 W 71ST ST New York NY ","latitude":"40.7774259","longitude":"-73.9812051"},{"number":26,"street":"West 84th Street","junction":["Columbus Avenue","Central Park West"],"detail":["Stanford Room (blue door)"],"zipcode":["10024"],"tamuAddress":"26 W 84TH ST New York NY ","latitude":"40.7844228","longitude":"-73.9716168"},{"number":595,"street":"Columbus Avenue","junction":[],"detail":["88th Street,Ground Level, Art Room 10024"],"zipcode":["10024"],"tamuAddress":"595 COLUMBUS AVE New York NY ","latitude":"40.7879892","longitude":"-73.9707609"},{"number":306,"street":"West 102nd Street","junction":["Riverside Drive","West End Avenue"],"detail":["2nd Floor"],"zipcode":["10025"],"tamuAddress":"306 W 102ND ST New York NY ","latitude":"40.7992334","longitude":"-73.9710638"},{"number":213,"street":"West 82nd Street","junction":["Amsterdam Avenue","Broadway"],"detail":[],"zipcode":["10024"],"tamuAddress":"213 W 82ND ST New York NY ","latitude":"40.7855603","longitude":"-73.9776992"},{"number":152,"street":"West 71st Street","junction":["Broadway","Columbus Avenue 10023"],"detail":[],"zipcode":["10023"],"tamuAddress":"152 W 71ST ST New York NY ","latitude":"40.7774259","longitude":"-73.9812051"},{"number":152,"street":"west 71st street","junction":["Broadway","Columbuis Avenues"],"detail":[],"zipcode":null,"tamuAddress":"152 W 71ST ST New York NY ","latitude":"40.7774259","longitude":"-73.9812051"},{"number":152,"street":"West 71st Street","junction":["Broadway","Columbus Avenues"],"detail":[],"zipcode":["10023"],"tamuAddress":"152 W 71ST ST New York NY ","latitude":"40.7774259","longitude":"-73.9812051"},{"number":160,"street":"Central Park West","junction":[],"detail":["Enter through side door on 76th Street","Downstairs"],"zipcode":["10023"],"tamuAddress":"160 CENTRAL PARK W New York NY ","latitude":"40.7787712","longitude":"-73.9743066"},{"number":207,"street":"West 96th Street","junction":["Amsterdam Avenue","Broadway"],"detail":["Basement","Little Room"],"zipcode":["10025"],"tamuAddress":"207 W 96TH ST New York NY ","latitude":"40.7945161","longitude":"-73.9710419"}]